STARLINK-2472           
1 48130U 21027AQ  26068.59623917  .00000164  00000+0  17668-4 0  9994
2 48130  53.1621 168.6315 0001727  59.3925 300.7246 15.30197129272467
BANDWAGON-2 OBJECT D    
1 62380U 24247D   26068.52261193  .00011259  00000+0  40119-3 0  9994
2 62380  44.9954 115.6710 0003488 351.1453   8.9368 15.29076102 67732
